MAKERSAT 0              
1 43016U 17073D   24013.21432568  .00012420  00000+0  76263-3 0  9998
2 43016  97.6035 256.8821 0212260  85.5196 277.0238 14.93307865332592
CORVUS BC3              
1 43118U 18004H   24012.93641224  .00063325  00000+0  96885-3 0  9997
2 43118  97.3050  93.8030 0005448  89.9170 270.2708 15.54155333334428
GOMX-4B                 
1 43196U 18015E   24012.94585327  .00039037  00000+0  76611-3 0  9995
2 43196  97.5942 176.8993 0010519 166.1682 193.9857 15.47176808331253
GOMX-4A                 
1 43197U 18015F   24013.43252004  .00047343  00000+0  77528-3 0  9991
2 43197  97.5905 180.8184 0009482 156.1840 203.9853 15.52303180331565
CUBEBEL-1 (BSUSAT-1)    
1 43666U 18083E   24013.48425480  .00178713  00000+0  16098-2 0  9992
2 43666  97.3479  54.3950 0006071  71.4124 288.7795 15.67612530289758
CICERO 10               
1 43690U 18088A   24012.77993267  .00052827  00000+0  94384-3 0  9990
2 43690  85.0261 289.5408 0009834 134.6578 225.5483 15.49770562287798
PROXIMA I               
1 43694U 18088E   24012.91152245  .00077093  00000+0  10543-2 0  9999
2 43694  85.0169 283.9157 0012286 103.8998 256.3630 15.57069080288193
PROXIMA II              
1 43696U 18088G   24012.76110147  .00074179  00000+0  10305-2 0  9997
2 43696  85.0178 284.1275 0012249 104.6724 255.5895 15.56654563288159
SIRION PATHFINDER-2     
1 43759U 18099B   24013.10568769  .00006343  00000+0  50424-3 0  9990
2 43759  97.5441  73.6986 0015436  97.1298 263.1682 15.00684344279083
CORVUS BC4              
1 43767U 18099K   24013.14134107  .00005364  00000+0  43361-3 0  9992
2 43767  97.5368  71.3997 0010841 150.7196 209.4637 15.00157005278985
MOVE-II                 
1 43780U 18099Y   24012.41822950  .00016237  00000+0  10163-2 0  9990
2 43780  97.5454  77.4923 0008373 150.0487 210.1223 15.09442675279233
SPACEBEE-7              
1 43816U 18099BL  24013.11761603  .00013564  00000+0  91068-3 0  9999
2 43816  97.5724  79.1304 0012210 102.6958 257.5635 15.06867043278874
SPACEBEE-5              
1 43817U 18099BM  24013.20620349  .00243354  00000+0  38733-2 0  9992
2 43817  97.5617  94.3878 0002559 340.4992  19.6162 15.52405698279807
SPACEBEE-6              
1 43818U 18099BN  24012.72555388  .00023950  00000+0  13346-2 0  9990
2 43818  97.5650  82.1231 0011233 113.1578 247.0837 15.13542928279178
SHIELDS 1               
1 43850U 18104B   24013.08362062  .00012468  00000+0  38994-3 0  9997
2 43850  85.0232  28.6427 0009480 304.8670  55.1686 15.32961873282211
STF-1                   
1 43852U 18104D   24013.03782507  .00231539  00000+0  14326-2 0  9998
2 43852  85.0077  20.9758 0001607 144.0953 216.0426 15.76438164283001
ZACUBE-2                
1 43907U 18111AH  24013.44080799  .00095051  00000+0  11108-2 0  9998
2 43907  97.0983 255.0846 0010668 145.0333 215.1627 15.61217360281693
LUME 1                  
1 43908U 18111AJ  24012.66795215  .00279827  00000+0  12898-2 0  9990
2 43908  97.0977 261.1336 0008514 116.2395 243.9751 15.82793980282029
SONATE                  
1 44400U 19038Q   24012.94647986  .00018864  00000+0  70567-3 0  9999
2 44400  97.7044   1.0401 0016481 302.9180  57.0472 15.27247903250185
LUCKY-7                 
1 44406U 19038W   24012.95054394  .00028301  00000+0  89497-3 0  9990
2 44406  97.6980   3.4805 0013697 292.1897  67.7891 15.32663913250355
BEESAT 9                
1 44412U 19038AC  24012.95777181  .00068586  00000+0  13398-2 0  9998
2 44412  97.6859   8.0122 0007266 276.3623  83.6799 15.47203932250380
JAISAT-1                
1 44419U 19038F   24013.46712472  .00068089  00000+0  13324-2 0  9991
2 44419  97.6839   9.6636 0007006 268.9845  91.0601 15.47157531250846
DUCHIFAT-3              
1 44854U 19089C   24013.10850143  .00014941  00000+0  87830-3 0  9991
2 44854  36.9595 272.4676 0009725 259.1733 100.7917 15.11016983224548
M2 PATHFINDER           
1 45727U 20037E   24013.05010854  .00004650  00000+0  42247-3 0  9996
2 45727  97.7648 190.5586 0010250 288.6379  71.3729 14.95702454192599
NETSAT-4                
1 46504U 20068U   24012.81229911  .00011507  00000+0  68613-3 0  9997
2 46504  97.7891 326.4109 0010504 166.1960 193.9559 15.11288234180528
NETSAT-3                
1 46505U 20068V   24012.81544874  .00011559  00000+0  69631-3 0  9994
2 46505  97.7864 326.0907 0009468 174.3134 185.8204 15.10923899180521
NETSAT-1                
1 46506U 20068W   24012.80190785  .00008836  00000+0  54666-3 0  9998
2 46506  97.7887 325.8158 0007825 182.7323 177.3864 15.10041758180501
NETSAT-2                
1 46507U 20068X   24012.82055668  .00011674  00000+0  69806-3 0  9997
2 46507  97.7875 326.1029 0006945 187.8690 172.2431 15.11207481180473
WILDTRACKCUBE-SIMBA     
1 47941U 21022K   24013.43835404  .00014049  00000+0  71820-3 0  9991
2 47941  97.4784 272.0150 0016542 335.2158  24.8279 15.16654623154829
BEESAT-6                
1 47957U 21022AB  24012.69200140  .00054681  00000+0  16858-2 0  9993
2 47957  97.4697 276.4006 0010616 325.5577  34.4976 15.33356291154864
SMOG-1                  
1 47964U 21022AJ  24012.70902755  .00051915  00000+0  15295-2 0  9995
2 47964  97.4811 279.1817 0008661 308.3759  51.6706 15.34827882154040
BCCSAT-1                
1 48041U 21022AK  24012.72264658  .00041450  00000+0  14243-2 0  9992
2 48041  97.4808 277.0709 0007989 313.3287  46.7287 15.29958837153883
BEESAT-5                
1 48083U 21022AM  24012.70212138  .00064199  00000+0  17933-2 0  9996
2 48083  97.4555 276.9652 0008883 322.6564  37.4062 15.36438272154061
BEESAT-7                
1 48084U 21022AN  24013.25558508  .00057716  00000+0  17560-2 0  9995
2 48084  97.4736 277.2933 0010178 320.3619  39.6878 15.33766535153695
BEESAT-8                
1 48085U 21022AP  24012.52197129  .00027018  00000+0  11510-2 0  9994
2 48085  97.4865 274.1472 0013906 330.8674  29.1785 15.22848987153963
LEDSAT                  
1 49069U 21073D   24013.15412648  .00016253  00000+0  76959-3 0  9997
2 49069  97.4591  85.8804 0022745 109.9614 250.4073 15.19183700132729
<!DOCTYPE html PUBLIC "-//W3C//DTD XHTML 1.0 Strict//EN" "http://www.w3.org/TR/xhtml1/DTD/xhtml1-strict.dtd">
<html xmlns="http://www.w3.org/1999/xhtml">
<head>
<meta http-equiv="Content-Type" content="text/html; charset=iso-8859-1"/>
<title>404 - File Not Found.</title>
<style type="text/css">
<!--
body{margin:0;font-size:.7em;font-family:Verdana, Arial, Helvetica, sans-serif;background:#EEEEEE;}
fieldset{padding:0 15px 10px 15px;}
h1{font-size:2.4em;margin:0;color:#FFF;}
h2{font-size:1.7em;margin:0;color:#CC0000;}
h3{font-size:1.2em;margin:10px 0 0 0;color:#000000;}
#header{width:96%;margin:0 0 0 0;padding:6px 2% 6px 2%;font-family:"trebuchet MS", Verdana, sans-serif;color:#FFF;
background-color:#555555;}
#content{margin:0 0 0 2%;position:relative;}
.content-container{background:#FFF;width:96%;margin-top:8px;padding:10px;position:relative;}
-->
</style>
</head>
<body>
<div id="header"><h1>Server Error</h1></div>
<div id="content">
 <div class="content-container"><fieldset>
  <h2>404 - File Not Found.</h2>
  <h3>File not found for celestrak.org/NORAD/elements/active.txt.</h3>
  <h3>Please contact <a href="mailto:ts.kelso@celestrak.org">ts.kelso@celestrak.org</a> if you have other questions.</h3>
 </fieldset></div>
</div>
</body>
</html>
BEIJING 1               
1 28890U 05043A   24013.48075207  .00000778  00000+0  16419-3 0  9997
2 28890  98.1804 137.7073 0015214 169.1832 190.9700 14.62088146971148
HJ-1A                   
1 33320U 08041A   24013.47682284  .00002242  00000+0  30807-3 0  9995
2 33320  97.6353  28.2478 0021112 155.5488 204.6730 14.79129250827335
HJ-1B                   
1 33321U 08041B   24013.45731342  .00001618  00000+0  21978-3 0  9999
2 33321  97.6339  32.7339 0038115 202.8255 157.1265 14.79645745827343
YAOGAN 4                
1 33446U 08061A   24013.39384733  .00002399  00000+0  33062-3 0  9994
2 33446  97.8701 308.4322 0016684  72.5027 287.8007 14.79037735814522
DEIMOS-1                
1 35681U 09041A   24013.51355257  .00001189  00000+0  19269-3 0  9998
2 35681  97.6752 203.8325 0002152 129.5525 230.5874 14.72931184776394
UK-DMC 2                
1 35683U 09041C   24013.44313647  .00001655  00000+0  26650-3 0  9999
2 35683  97.7558 167.7926 0001175  99.3819 260.7522 14.72747080776081
RISAT 1                 
1 38248U 12017A   24013.00028673  .00011727  00000+0  54651-3 0  9993
2 38248  97.5330  30.2426 0005094  77.3846 282.7958 15.20037249645845
DMC3-FM1                
1 40715U 15032A   24013.41937106  .00001309  00000+0  16641-3 0  9992
2 40715  97.7727 256.7212 0007310  83.8130 276.3917 14.83243506458487
DMC3-FM2                
1 40716U 15032B   24013.44262529  .00001338  00000+0  16991-3 0  9996
2 40716  97.7779 257.7118 0009230  87.3621 272.8649 14.83244847458480
DMC3-FM3                
1 40717U 15032C   24013.46430202  .00001351  00000+0  17153-3 0  9990
2 40717  97.7824 258.9239 0010698  84.4879 275.7555 14.83236674458490
NOAA 15                 
1 25338U 98030A   24013.45564687  .00000294  00000+0  13981-3 0  9995
2 25338  98.5862  43.7122 0011254  62.9387 297.2940 14.26470742335234
DMSP 5D-3 F16 (USA 172) 
1 28054U 03048A   24013.49241590  .00000265  00000+0  16379-3 0  9999
2 28054  99.0200  18.5150 0007984 129.1280  24.2665 14.13927697 44273
NOAA 18                 
1 28654U 05018A   24013.44200595  .00000354  00000+0  21312-3 0  9991
2 28654  98.8907  91.6277 0014960 142.3306 217.8917 14.13098620961262
METEOSAT-9 (MSG-2)      
1 28912U 05049B   24012.80665304  .00000132  00000+0  00000+0 0  9995
2 28912   7.3266  62.1611 0000272 215.2750 170.4185  1.00270097 66169
